{"TopicId":115048,"ForumId":20,"TopicTitle":"RemoteTech - How many sats are really needed for interplanetary connections?","CreatedByName":"Cairol","CreatedById":145279,"CreatedDateTime":"2015-07-04T18:24:06Z","PageNum":1,"Articles":[{"CreatedByName":"Cairol","CreatedById":145279,"CreatedDateTime":"2015-07-04T18:24:06Z","Content":"\n\u003Cp\u003EMy question is in the title.\u003C/p\u003E\u003Cp\u003EHow many sats are really needed for interplanetary connections with full coverage?\u003C/p\u003E\u003Cp\u003EThis guy here says, you should place 3 polar orbital sats for interplanetary connections.\u003C/p\u003E\u003Cp\u003EFor example to cover a Duna transfer from Kerbin.\u003C/p\u003E\u003Cp\u003E\n\u003C/p\u003E\u003Cdiv class=\u0022ipsEmbeddedVideo\u0022 contenteditable=\u0022false\u0022\u003E\u003Cdiv\u003E\u003Ciframe width=\u0022459\u0022 height=\u0022344\u0022 src=\u0022https://www.youtube.com/embed/XMSJP4ToPNs?feature=oembed\u0022 frameborder=\u00220\u0022 allowfullscreen=\u0022true\u0022\u003E\u003C/iframe\u003E\u003C/div\u003E\u003C/div\u003E\u003Cp\u003EIn my Imagination I think additionally to the 3 sats in aequatorial orbit around Kerbin,\u003C/p\u003E\u003Cp\u003Ejust 2 more medium/long range sats in polar orbit at 180 degrees to another will suffice for full coverage of another planet like Duna.\u003C/p\u003E\u003Cp\u003EBecause even in worst case when Kerbin is blocking LoS from another planet to one of the polar orbit sats,\u003C/p\u003E\u003Cp\u003Ethe second sat will be visible as Kerbin only blocks a small angle from such a large distance.\u003C/p\u003E\u003Cp\u003EIs this correct, or am I missing some use case here?\u003C/p\u003E\n"},{"CreatedByName":"hendrack","CreatedById":142754,"CreatedDateTime":"2015-07-04T18:42:06Z","Content":"\n\u003Cp\u003EI only have only one geostationary satellite with long range dishes and it works fine. I used to send satellites to my destinations too but now I build a command ship with 6 kerbals and make sure it has LoS. Though I used hyperedit to make it properly geostationary after putting them into an approximate orbit. \u003C/p\u003E\u003Cblockquote lang=\u0022en\u0022\u003E\u003Ca href=\u0022//imgur.com/a/kXo9d\u0022 rel=\u0022external nofollow\u0022\u003EJavascript is disabled. View full album\u003C/a\u003E\u003C/blockquote\u003E\n\u003Cspan class=\u0022ipsType_reset ipsType_medium ipsType_light\u0022 data-excludequote=\u0022\u0022\u003E\n\u003Cstrong\u003EEdited \u003Ctime datetime=\u00222015-07-04T18:49:15Z\u0022 title=\u002207/04/2015 06:49  PM\u0022 data-short=\u00229 yr\u0022\u003EJuly 4, 2015\u003C/time\u003E by hendrack\u003C/strong\u003E\n\u003C/span\u003E\n"},{"CreatedByName":"Alshain","CreatedById":110959,"CreatedDateTime":"2015-07-04T18:48:38Z","Content":"\n\u003Cp\u003ETechnically speaking, if you want \u003Cstrong\u003E\u003Cspan style=\u0022text-decoration:underline;\u0022\u003EFull Uninterrupted Coverage\u003C/span\u003E\u003C/strong\u003E you need quite a few. 6 per planet minimum, and then a solar network in a polar orbit to ensure the sun and other planets do not block line of sight to Kerbin. Realistically though, 3 per planet should be enough to get most areas of the planet and the sun and other planets do not block LoS for very long (relatively speaking) so that network can wait till late in the game.\u003C/p\u003E\n"},{"CreatedByName":"maltesh","CreatedById":17144,"CreatedDateTime":"2015-07-04T19:13:02Z","Content":"\n\u003Cblockquote data-ipsquote=\u0022\u0022 class=\u0022ipsQuote\u0022 data-ipsquote-username=\u0022Alshain\u0022 data-cite=\u0022Alshain\u0022\u003E\u003Cdiv\u003ETechnically speaking, if you want \u003Cstrong\u003E\u003Cspan style=\u0022text-decoration:underline;\u0022\u003EFull Uninterrupted Coverage\u003C/span\u003E\u003C/strong\u003E you need quite a few. 6 per planet minimum, and then a solar network in a polar orbit to ensure the sun and other planets do not block line of sight to Kerbin. Realistically though, 3 per planet should be enough to get most areas of the planet and the sun and other planets do not block LoS for very long (relatively speaking) so that network can wait till late in the game.\u003C/div\u003E\u003C/blockquote\u003E\u003Cp\u003EActually, the \u003Ca href=\u0022http://arc.aiaa.org/doi/abs/10.2514/3.20047\u0022 rel=\u0022external nofollow\u0022\u003EDraim Tetrahedral Configuration\u003C/a\u003E can do it with four satellites in specific positions in inclined, elliptical orbits. \u003C/p\u003E\u003Cp\u003EAll four of the satellites maintain line of sight to each of others at all times, as well as providing full surface coverage.\u003C/p\u003E\u003Cp\u003EI wound up writing up a \u003Ca href=\u0022https://forum.kerbalspaceprogram.com/threads/33711-Scenario-Tetrahedral-Satellite-Configuration-4-sat-full-surface-coverage\u0022 rel=\u0022external nofollow\u0022\u003Echallenge\u003C/a\u003E to set up a minimum-size Draim Tetrahedron over Kerbin a few years ago, and spent some time writing a computer program to simulate the surface coverage of one earlier this year. As it turns out, for the minimal Draim, you\u0027ll need communications links of about 11,000 km to maintain connections between the satellites.\u003C/p\u003E\u003Cp\u003EThe navigational tools KSP provides, however, are not very good for setting up your own Draim Tetrahedron, and the three-polar, three-equatorial satellite solution is definitely a lot easier to fly in KSP.\u003C/p\u003E\n\u003Cspan class=\u0022ipsType_reset ipsType_medium ipsType_light\u0022 data-excludequote=\u0022\u0022\u003E\n\u003Cstrong\u003EEdited \u003Ctime datetime=\u00222015-07-05T10:47:31Z\u0022 title=\u002207/05/2015 10:47  AM\u0022 data-short=\u00229 yr\u0022\u003EJuly 5, 2015\u003C/time\u003E by maltesh\u003C/strong\u003E\n\u003C/span\u003E\n"},{"CreatedByName":"Cairol","CreatedById":145279,"CreatedDateTime":"2015-07-04T20:12:38Z","Content":"\n\u003Cp\u003EShort interruptions due to planets / moons / sun in the way of LoS are acceptable for me right now.\u003C/p\u003E\u003Cp\u003EWhat I want is to not lose connections due to planetary rotation (or current satellite angle when not in synchronous orbit).\u003C/p\u003E\u003Cp\u003EAnd therefore I guess two polar orbital sats will be enough?\u003C/p\u003E\u003Cp\u003EAs Alshain said, the total coverage is more for the late game.\u003C/p\u003E\u003Cp\u003EI\u0027ve just started out with RT and I am currently setting up my first interplanetary connection.\u003C/p\u003E\u003Cp\u003ESo it does not have to be perfect. Just decently reliable to work with.\u003C/p\u003E\u003Cp\u003EI just wanted to know in advance how many satellites I have to bring for connecting a neigboring planet like Duna appropriately.\u003C/p\u003E\n"},{"CreatedByName":"RainDreamer","CreatedById":129077,"CreatedDateTime":"2015-07-05T20:40:49Z","Content":"\n\u003Cblockquote data-ipsquote=\u0022\u0022 class=\u0022ipsQuote\u0022 data-ipsquote-username=\u0022maltesh\u0022 data-cite=\u0022maltesh\u0022\u003E\u003Cdiv\u003EActually, the \u003Ca href=\u0022http://arc.aiaa.org/doi/abs/10.2514/3.20047\u0022 rel=\u0022external nofollow\u0022\u003EDraim Tetrahedral Configuration\u003C/a\u003E can do it with four satellites in specific positions in inclined, elliptical orbits. \u003Cp\u003E\u003C/p\u003E\u003C/div\u003E\u003C/blockquote\u003E\u003Cp\u003EThe paper is behind a paywall so I can\u0027t read the details. Do you have a tutorial for replicating the configuration in KSP?\u003C/p\u003E\n"},{"CreatedByName":"John FX","CreatedById":59415,"CreatedDateTime":"2015-07-05T21:32:27Z","Content":"\n\u003Cp\u003EYou could put two on highly elliptical polar orbits (100kmx40Mm) so they take days to orbit kerbin then one keostationary one feeding them. Mun and Minmus would not get in the way when they are so high.\u003C/p\u003E\u003Cp\u003EThe problem I find is that often the burn you need to do to capture at the other end needs to be on the far side of the planet...\u003C/p\u003E\n"},{"CreatedByName":"maltesh","CreatedById":17144,"CreatedDateTime":"2015-07-05T23:29:12Z","Content":"\n\u003Cblockquote data-ipsquote=\u0022\u0022 class=\u0022ipsQuote\u0022 data-ipsquote-username=\u0022RainDreamer\u0022 data-cite=\u0022RainDreamer\u0022\u003E\u003Cdiv\u003EThe paper is behind a paywall so I can\u0027t read the details. Do you have a tutorial for replicating the configuration in KSP?\u003C/div\u003E\u003C/blockquote\u003E\u003Cp\u003ETo be honest, I\u0027ve never actually done it without guideposts. When I fly to place a Draim configuration, my typical tactic is to edit the persistence file to place targets at the desired points, and then I fly my spacecraft to rendezvous with them. In the Draim configuration, all four of the satellites are in orbits with inclination 33\u00C3\u201A\u00C2\u00B0, and eccentricity 0.28, and a semimajor axis that gives a periapse high enough for the satellite to do its part in covering its section of the planet; Draim\u0027s parameters for Earth were these:\u003C/p\u003E\u003Cp\u003E\u003C/p\u003E\u003Cblockquote\u003E\u003Cp\u003E\u003Cimg src=\u0022http://i.imgur.com/BAYCNwI.png\u0022 alt=\u0022BAYCNwI.png\u0022\u003E\u003C/p\u003E\u003Cp\u003E\u003C/p\u003E\u003C/blockquote\u003E\u003Cp\u003EThe minmum 27-hour requirement over Earth is how he specified the semimajor axis for his orbit. This works out so that, for any particular world, the minimum semimajor axis for the Draim configuration is about 7.25 times the radius of the world. As such, these were the parameters I picked for the challenge, which are a little larger than the minimal Draim configuration over Kerbin.\u003C/p\u003E\u003Cp\u003E[table=width: 800]\u003C/p\u003E\u003Cp\u003E[tr]\u003C/p\u003E\u003Cp\u003E [td][/td]\u003C/p\u003E\u003Cp\u003E [td]Sat 0[/td]\u003C/p\u003E\u003Cp\u003E [td]Sat 1[/td]\u003C/p\u003E\u003Cp\u003E [td]Sat 2[/td]\u003C/p\u003E\u003Cp\u003E [td]Sat 3[/td]\u003C/p\u003E\u003Cp\u003E[/tr]\u003C/p\u003E\u003Cp\u003E[tr]\u003C/p\u003E\u003Cp\u003E [td]Semi-Major Axis (SMA)[/td]\u003C/p\u003E\u003Cp\u003E [td]4350000 m[/td]\u003C/p\u003E\u003Cp\u003E [td]4350000 m[/td]\u003C/p\u003E\u003Cp\u003E [td]4350000 m[/td]\u003C/p\u003E\u003Cp\u003E [td]4350000 m[/td]\u003C/p\u003E\u003Cp\u003E[/tr]\u003C/p\u003E\u003Cp\u003E[tr]\u003C/p\u003E\u003Cp\u003E [td]Eccentricity (ECC)[/td]\u003C/p\u003E\u003Cp\u003E [td]0.28[/td]\u003C/p\u003E\u003Cp\u003E [td]0.28[/td]\u003C/p\u003E\u003Cp\u003E [td]0.28[/td]\u003C/p\u003E\u003Cp\u003E [td]0.28[/td]\u003C/p\u003E\u003Cp\u003E[/tr]\u003C/p\u003E\u003Cp\u003E[tr]\u003C/p\u003E\u003Cp\u003E [td]Inclination (INC)[/td]\u003C/p\u003E\u003Cp\u003E [td]33\u00C3\u201A\u00C2\u00B0[/td]\u003C/p\u003E\u003Cp\u003E [td]33\u00C3\u201A\u00C2\u00B0[/td]\u003C/p\u003E\u003Cp\u003E [td]33\u00C3\u201A\u00C2\u00B0[/td]\u003C/p\u003E\u003Cp\u003E [td]33\u00C3\u201A\u00C2\u00B0[/td]\u003C/p\u003E\u003Cp\u003E[/tr]\u003C/p\u003E\u003Cp\u003E[tr]\u003C/p\u003E\u003Cp\u003E [td]Argument of Periapsis (LPE)[/td]\u003C/p\u003E\u003Cp\u003E [td]270\u00C3\u201A\u00C2\u00B0[/td]\u003C/p\u003E\u003Cp\u003E [td]90\u00C3\u201A\u00C2\u00B0[/td]\u003C/p\u003E\u003Cp\u003E [td]270\u00C3\u201A\u00C2\u00B0[/td]\u003C/p\u003E\u003Cp\u003E [td]90\u00C3\u201A\u00C2\u00B0[/td]\u003C/p\u003E\u003Cp\u003E[/tr]\u003C/p\u003E\u003Cp\u003E[tr]\u003C/p\u003E\u003Cp\u003E [td]Longitude of the Ascending Node (LAN)[/td]\u003C/p\u003E\u003Cp\u003E [td]0\u00C3\u201A\u00C2\u00B0[/td]\u003C/p\u003E\u003Cp\u003E [td]90\u00C3\u201A\u00C2\u00B0[/td]\u003C/p\u003E\u003Cp\u003E [td]180\u00C3\u201A\u00C2\u00B0[/td]\u003C/p\u003E\u003Cp\u003E [td]270\u00C3\u201A\u00C2\u00B0[/td]\u003C/p\u003E\u003Cp\u003E[/tr]\u003C/p\u003E\u003Cp\u003E[tr]\u003C/p\u003E\u003Cp\u003E [td]Mean Anomaly at Epoch UT=0.0 (MNA)[/td]\u003C/p\u003E\u003Cp\u003E [td]0[/td]\u003C/p\u003E\u003Cp\u003E [td]-1.57078[/td]\u003C/p\u003E\u003Cp\u003E [td]3.14159[/td]\u003C/p\u003E\u003Cp\u003E [td]1.57078[/td]\u003C/p\u003E\u003Cp\u003E[/tr]\u003C/p\u003E\u003Cp\u003E[tr]\u003C/p\u003E\u003Cp\u003E [td]Epoch (EPH)[/td]\u003C/p\u003E\u003Cp\u003E [td]0.0[/td]\u003C/p\u003E\u003Cp\u003E [td]0.0[/td]\u003C/p\u003E\u003Cp\u003E [td]0.0[/td]\u003C/p\u003E\u003Cp\u003E [td]0.0[/td]\u003C/p\u003E\u003Cp\u003E[/tr]\u003C/p\u003E\u003Cp\u003E[/table]\u003C/p\u003E\u003Cp\u003EViewed from a point perpendicular to the orbital plane, each of the orbits has this shape:\u003C/p\u003E\u003Cp\u003E\u003Cimg src=\u0022https://dl.dropboxusercontent.com/u/4057920/Kerbal%20Space%20Program/DraimOrbit5.png\u0022 alt=\u0022DraimOrbit5.png\u0022\u003E\u003C/p\u003E\u003Cp\u003EAnd the video below has a run of the simulator that I bashed together back in march to show someone that the Draim Configuration does do full-surface coverage.\u003C/p\u003E\u003Cp\u003E\u003C/p\u003E\u003Cp\u003E\n\u003C/p\u003E\u003Cdiv class=\u0022ipsEmbeddedVideo\u0022 contenteditable=\u0022false\u0022\u003E\u003Cdiv\u003E\u003Ciframe width=\u0022480\u0022 height=\u0022270\u0022 src=\u0022https://www.youtube.com/embed/xOWPGKcFAek?feature=oembed\u0022 frameborder=\u00220\u0022 allowfullscreen=\u0022true\u0022\u003E\u003C/iframe\u003E\u003C/div\u003E\u003C/div\u003E\u003Cp\u003EThe satellites were placed using the above parameters. It is probably best viewed on YouTube, in full-screen mode, where you can see the numbers in the table.\u003C/p\u003E\u003Cp\u003EIn the big upper square, we assume a non-rotating Kerbin for simplicity, and using a plate-carree projection. Each of the thin horizontal and vertical lines represent 30\u00C3\u201A\u00C2\u00B0 of longitude or latitude. The secondary vertical lines are at 90\u00C3\u201A\u00C2\u00B0 intervals, and the big thick lines represent the equator and Prime meridian for the simulation.\u003C/p\u003E\u003Cp\u003EThe numbers on the big grid represent the point directly under each of the four satellites on this non-rotating Kerbin. 0 is Cyan, 1 is Orange/Yellow, 2 is Magenta, and 3 is White.\u003C/p\u003E\u003Cp\u003EThe colored contours around each satellite represent contours of how far above the horizon the satellite appears in increments of 10\u00C3\u201A\u00C2\u00B0. Right below the satellite is the number, the next contour has the satellite appear 80\u00C3\u201A\u00C2\u00B0 above the horizon, then 70\u00C3\u201A\u00C2\u00B0, and all the way down to the thick contour, which is the limit on the surface where the satellite can be seen.\u003C/p\u003E\u003Cp\u003EBelow that is a table. Latitude, longitude, and altitude are the surface coordinates of the satellites. \u003C/p\u003E\u003Cp\u003EHorizon is the radius, measured along the surface, of the region of Kerbin each satellite can see. \u003C/p\u003E\u003Cp\u003ESurface % is the fraction of Kerbin\u0027s total surface that each of the satellites can see at any one time.\u003C/p\u003E\u003Cp\u003ESat0 Link, Sat1 Link, Sat2 Link, and Sat3 link is sort of a split table.\u003C/p\u003E\u003Cp\u003EThe upper right triangle shows the length of the communications link between each pair of the satellites, with the stipulation that none of the links are allowed to pass closer than 600km from the center of Kerbin (because then Kerbin would be in the way). \u003C/p\u003E\u003Cp\u003EThe Lower right triangle shows the link path. As it turns out, Kerbin never gets in the way of the link between any pair of the satellites.\u003C/p\u003E\u003Cp\u003EFinally the lower three views are animations of the satellites viewed from above the X-Z plane, the X-Y plane, and the Y-Z plane, The reason they don\u0027t look elliptical is because all the orbits are at angles relative to the planes of view.\u003C/p\u003E\n\u003Cspan class=\u0022ipsType_reset ipsType_medium ipsType_light\u0022 data-excludequote=\u0022\u0022\u003E\n\u003Cstrong\u003EEdited \u003Ctime datetime=\u00222015-07-05T23:31:29Z\u0022 title=\u002207/05/2015 11:31  PM\u0022 data-short=\u00229 yr\u0022\u003EJuly 5, 2015\u003C/time\u003E by maltesh\u003C/strong\u003E\n\u003C/span\u003E\n"},{"CreatedByName":"Alshain","CreatedById":110959,"CreatedDateTime":"2015-07-06T07:27:15Z","Content":"\n\u003Cblockquote data-ipsquote=\u0022\u0022 class=\u0022ipsQuote\u0022 data-ipsquote-username=\u0022Cairol\u0022 data-cite=\u0022Cairol\u0022\u003E\u003Cdiv\u003EShort interruptions due to planets / moons / sun in the way of LoS are acceptable for me right now.\u003Cp\u003EWhat I want is to not lose connections due to planetary rotation (or current satellite angle when not in synchronous orbit).\u003C/p\u003E\u003Cp\u003EAnd therefore I guess two polar orbital sats will be enough?\u003C/p\u003E\u003Cp\u003EAs Alshain said, the total coverage is more for the late game.\u003C/p\u003E\u003Cp\u003EI\u0027ve just started out with RT and I am currently setting up my first interplanetary connection.\u003C/p\u003E\u003Cp\u003ESo it does not have to be perfect. Just decently reliable to work with.\u003C/p\u003E\u003Cp\u003EI just wanted to know in advance how many satellites I have to bring for connecting a neigboring planet like Duna appropriately.\u003C/p\u003E\u003C/div\u003E\u003C/blockquote\u003E\u003Cp\u003EJust be careful with which antenna you choose for which planet. Make sure you understand the cone mechanics. You can\u0027t just use the biggest antenna at every planet. Eve and Duna for example are far too close for the really big antennae, as the cone will not cover ideal orbits of Kerbin.\u003C/p\u003E\n"},{"CreatedByName":"jbakes","CreatedById":145551,"CreatedDateTime":"2015-11-04T18:39:18Z","Content":"\n\u003Cp\u003EWhat does LoS mean?\u003C/p\u003E\n"},{"CreatedByName":"Stone Blue","CreatedById":77721,"CreatedDateTime":"2015-11-04T18:55:24Z","Content":"\n\u003Cp\u003E^^ \u003C/p\u003E\u003Cp\u003ELine of Sight... A straight line between two points, basically with no solid obstructions between, like planets, moons, or sun... \u003Cimg src=\u0022//kerbal-forum-uploads.s3.us-west-2.amazonaws.com/emoticons/default_k_wink.gif\u0022 alt=\u0022;)\u0022\u003E\u003C/p\u003E\n\u003Cspan class=\u0022ipsType_reset ipsType_medium ipsType_light\u0022 data-excludequote=\u0022\u0022\u003E\n\u003Cstrong\u003EEdited \u003Ctime datetime=\u00222015-11-04T19:39:29Z\u0022 title=\u002211/04/2015 07:39  PM\u0022 data-short=\u00228 yr\u0022\u003ENovember 4, 2015\u003C/time\u003E by Stone Blue\u003C/strong\u003E\n\u003C/span\u003E\n"},{"CreatedByName":"Van Disaster","CreatedById":58876,"CreatedDateTime":"2015-11-04T21:43:13Z","Content":"\n\u003Cp\u003ELast time I ran a RT game I stuck one sat over KSC, and one enormous relay station in a polar orbit somewhat outside Mun\u0027s. The intention was to use two relay stations because obviously there\u0027s occasional interruptions, but in the end due to the way the game went that ended up being unnecessary ( not least because even if the GSO relay couldn\u0027t see the main relay, I had a network at Mun by then which would relay just fine ).\u003C/p\u003E\n"}]}